[{"OBJECT_NAME":"TRANSPORTER-12 OBJECT AZ","OBJECT_ID":"2025-009AZ","EPOCH":"2026-03-09T17:02:46.667040","MEAN_MOTION":15.30349724,"ECCENTRICITY":9.87e-5,"INCLINATION":97.3981,"RA_OF_ASC_NODE":151.9913,"ARG_OF_PERICENTER":45.3581,"MEAN_ANOMALY":314.774,"EPHEMERIS_TYPE":0,"CLASSIFICATION_TYPE":"U","NORAD_CAT_ID":62656,"ELEMENT_SET_NO":999,"REV_AT_EPOCH":6379,"BSTAR":0.00054902545,"MEAN_MOTION_DOT":0.00016057,"MEAN_MOTION_DDOT":0},{"OBJECT_NAME":"STARLINK-34206","OBJECT_ID":"2025-236N","EPOCH":"2026-03-09T09:09:39.547008","MEAN_MOTION":15.30194554,"ECCENTRICITY":0.0001101,"INCLINATION":53.158,"RA_OF_ASC_NODE":105.5726,"ARG_OF_PERICENTER":76.4635,"MEAN_ANOMALY":283.6489,"EPHEMERIS_TYPE":0,"CLASSIFICATION_TYPE":"U","NORAD_CAT_ID":66098,"ELEMENT_SET_NO":999,"REV_AT_EPOCH":2288,"BSTAR":0.0009263481,"MEAN_MOTION_DOT":0.00027172,"MEAN_MOTION_DDOT":0}]
